{"type": "FeatureCollection", "features": [ {"type": "Feature", "properties": {"norad_id": 17070, "name": "POLAR BEAR", "group": "nnss", "lat": -89.61742986296395, "lon": 96.04356022865458, "alt_km": 1008.3039579248998, "timestamp": "2025-12-06T09:34:17.182349+00:00", "meta": {"OBJECT_NAME": "POLAR BEAR", "OBJECT_ID": "1986-088A", "EPOCH": "2025-12-05T15:06:25.540992", "MEAN_MOTION": 13.75248618, "ECCENTRICITY": 0.00404842, "INCLINATION": 89.6179, "RA_OF_ASC_NODE": 184.0581, "ARG_OF_PERICENTER": 139.9261, "MEAN_ANOMALY": 283.1057, "EPHEMERIS_TYPE": 0, "CLASSIFICATION_TYPE": "U", "NORAD_CAT_ID": 17070, "ELEMENT_SET_NO": 999, "REV_AT_EPOCH": 95881, "BSTAR": 0.00016715435, "MEAN_MOTION_DOT": 1.73e-06, "MEAN_MOTION_DDOT": 0}, "tle": {"line1": "1 17070U 86088A   25339.62946228  .00000173  00000+0  16715-3 0  9999", "line2": "2 17070  89.6179 184.0581 0040484 139.9261 283.1057 13.75248618958817"}}, "geometry": {"type": "Point", "coordinates": [96.04356022865458, -89.61742986296395]}}, {"type": "Feature", "properties": {"norad_id": 18361, "name": "OSCAR 27", "group": "nnss", "lat": 42.23592311800795, "lon": -100.62502300417627, "alt_km": 1106.1530426951404, "timestamp": "2025-12-06T09:34:17.182360+00:00", "meta": {"OBJECT_NAME": "OSCAR 27", "OBJECT_ID": "1987-080A", "EPOCH": "2025-12-05T18:35:37.140288", "MEAN_MOTION": 13.44904458, "ECCENTRICITY": 0.01024963, "INCLINATION": 90.3742, "RA_OF_ASC_NODE": 79.0117, "ARG_OF_PERICENTER": 244.0221, "MEAN_ANOMALY": 115.0341, "EPHEMERIS_TYPE": 0, "CLASSIFICATION_TYPE": "U", "NORAD_CAT_ID": 18361, "ELEMENT_SET_NO": 999, "REV_AT_EPOCH": 87463, "BSTAR": 0.00028133, "MEAN_MOTION_DOT": 1.78e-06, "MEAN_MOTION_DDOT": 0}, "tle": {"line1": "1 18361U 87080A   25339.77473542  .00000178  00000+0  28133-3 0  9998", "line2": "2 18361  90.3742  79.0117 0102496 244.0221 115.0341 13.44904458874633"}}, "geometry": {"type": "Point", "coordinates": [-100.62502300417627, 42.23592311800795]}}, {"type": "Feature", "properties": {"norad_id": 18362, "name": "OSCAR 29", "group": "nnss", "lat": 19.581812325506693, "lon": -100.37300868676796, "alt_km": 1112.609058515407, "timestamp": "2025-12-06T09:34:17.182370+00:00", "meta": {"OBJECT_NAME": "OSCAR 29", "OBJECT_ID": "1987-080B", "EPOCH": "2025-12-05T20:50:57.566976", "MEAN_MOTION": 13.44446435, "ECCENTRICITY": 0.01037235, "INCLINATION": 90.3754, "RA_OF_ASC_NODE": 79.4735, "ARG_OF_PERICENTER": 267.1598, "MEAN_ANOMALY": 210.1892, "EPHEMERIS_TYPE": 0, "CLASSIFICATION_TYPE": "U", "NORAD_CAT_ID": 18362, "ELEMENT_SET_NO": 999, "REV_AT_EPOCH": 87417, "BSTAR": 0.00024259225, "MEAN_MOTION_DOT": 1.53e-06, "MEAN_MOTION_DDOT": 0}, "tle": {"line1": "1 18362U 87080B   25339.86872184  .00000153  00000+0  24259-3 0  9992", "line2": "2 18362  90.3754  79.4735 0103723 267.1598 210.1892 13.44446435874177"}}, "geometry": {"type": "Point", "coordinates": [-100.37300868676796, 19.581812325506693]}}, {"type": "Feature", "properties": {"norad_id": 19070, "name": "OSCAR 23", "group": "nnss", "lat": -41.57602949467285, "lon": 16.481985484213485, "alt_km": 1232.9148375032337, "timestamp": "2025-12-06T09:34:17.182380+00:00", "meta": {"OBJECT_NAME": "OSCAR 23", "OBJECT_ID": "1988-033A", "EPOCH": "2025-12-05T16:18:45.237600", "MEAN_MOTION": 13.27785497, "ECCENTRICITY": 0.01889371, "INCLINATION": 90.322, "RA_OF_ASC_NODE": 16.1737, "ARG_OF_PERICENTER": 199.5773, "MEAN_ANOMALY": 281.6539, "EPHEMERIS_TYPE": 0, "CLASSIFICATION_TYPE": "U", "NORAD_CAT_ID": 19070, "ELEMENT_SET_NO": 999, "REV_AT_EPOCH": 82159, "BSTAR": 0.00023902205, "MEAN_MOTION_DOT": 1.27e-06, "MEAN_MOTION_DDOT": 0}, "tle": {"line1": "1 19070U 88033A   25339.67969025  .00000127  00000+0  23902-3 0  9993", "line2": "2 19070  90.3220  16.1737 0188937 199.5773 281.6539 13.27785497821599"}}, "geometry": {"type": "Point", "coordinates": [16.481985484213485, -41.57602949467285]}}, {"type": "Feature", "properties": {"norad_id": 19071, "name": "OSCAR 32", "group": "nnss", "lat": 61.284044376125685, "lon": 15.73883445960708, "alt_km": 1223.9570888419948, "timestamp": "2025-12-06T09:34:17.182390+00:00", "meta": {"OBJECT_NAME": "OSCAR 32", "OBJECT_ID": "1988-033B", "EPOCH": "2025-12-05T21:28:09.882912", "MEAN_MOTION": 13.27952736, "ECCENTRICITY": 0.0187778, "INCLINATION": 90.3224, "RA_OF_ASC_NODE": 16.3119, "ARG_OF_PERICENTER": 185.8244, "MEAN_ANOMALY": 348.0929, "EPHEMERIS_TYPE": 0, "CLASSIFICATION_TYPE": "U", "NORAD_CAT_ID": 19071, "ELEMENT_SET_NO": 999, "REV_AT_EPOCH": 82174, "BSTAR": 0.00025968054, "MEAN_MOTION_DOT": 1.38e-06, "MEAN_MOTION_DDOT": 0}, "tle": {"line1": "1 19071U 88033B   25339.89455883  .00000138  00000+0  25968-3 0  9996", "line2": "2 19071  90.3224  16.3119 0187778 185.8244 348.0929 13.27952736821743"}}, "geometry": {"type": "Point", "coordinates": [15.73883445960708, 61.284044376125685]}}, {"type": "Feature", "properties": {"norad_id": 19223, "name": "NOVA 2", "group": "nnss", "lat": 14.540475523776545, "lon": 78.2834832122522, "alt_km": 1152.1714345548116, "timestamp": "2025-12-06T09:34:17.182400+00:00", "meta": {"OBJECT_NAME": "NOVA 2", "OBJECT_ID": "1988-052A", "EPOCH": "2025-12-05T19:33:49.296096", "MEAN_MOTION": 13.2293481, "ECCENTRICITY": 0.00311447, "INCLINATION": 89.9873, "RA_OF_ASC_NODE": 78.2809, "ARG_OF_PERICENTER": 35.5433, "MEAN_ANOMALY": 81.131, "EPHEMERIS_TYPE": 0, "CLASSIFICATION_TYPE": "U", "NORAD_CAT_ID": 19223, "ELEMENT_SET_NO": 999, "REV_AT_EPOCH": 80856, "BSTAR": 0.00025319783, "MEAN_MOTION_DOT": 1.15e-06, "MEAN_MOTION_DDOT": 0}, "tle": {"line1": "1 19223U 88052A   25339.81515389  .00000115  00000+0  25320-3 0  9993", "line2": "2 19223  89.9873  78.2809 0031144  35.5433  81.1310 13.22934810808567"}}, "geometry": {"type": "Point", "coordinates": [78.2834832122522, 14.540475523776545]}}, {"type": "Feature", "properties": {"norad_id": 19419, "name": "OSCAR 25", "group": "nnss", "lat": 3.123568951705325, "lon": 20.22128067786128, "alt_km": 1112.3738644963387, "timestamp": "2025-12-06T09:34:17.182414+00:00", "meta": {"OBJECT_NAME": "OSCAR 25", "OBJECT_ID": "1988-074A", "EPOCH": "2025-12-05T21:54:28.663200", "MEAN_MOTION": 13.42621411, "ECCENTRICITY": 0.00942515, "INCLINATION": 90.0352, "RA_OF_ASC_NODE": 20.2215, "ARG_OF_PERICENTER": 265.6733, "MEAN_ANOMALY": 268.9378, "EPHEMERIS_TYPE": 0, "CLASSIFICATION_TYPE": "U", "NORAD_CAT_ID": 19419, "ELEMENT_SET_NO": 999, "REV_AT_EPOCH": 82548, "BSTAR": 0.00028827776, "MEAN_MOTION_DOT": 1.76e-06, "MEAN_MOTION_DDOT": 0}, "tle": {"line1": "1 19419U 88074A   25339.91283175  .00000176  00000+0  28828-3 0  9993", "line2": "2 19419  90.0352  20.2215 0094251 265.6733 268.9378 13.42621411825485"}}, "geometry": {"type": "Point", "coordinates": [20.22128067786128, 3.123568951705325]}}, {"type": "Feature", "properties": {"norad_id": 19420, "name": "OSCAR 31", "group": "nnss", "lat": -66.65466956942595, "lon": -159.51339035830483, "alt_km": 1039.2610811980112, "timestamp": "2025-12-06T09:34:17.182436+00:00", "meta": {"OBJECT_NAME": "OSCAR 31", "OBJECT_ID": "1988-074B", "EPOCH": "2025-12-05T16:52:33.532896", "MEAN_MOTION": 13.42582937, "ECCENTRICITY": 0.00925026, "INCLINATION": 90.0369, "RA_OF_ASC_NODE": 20.5696, "ARG_OF_PERICENTER": 260.3951, "MEAN_ANOMALY": 226.1548, "EPHEMERIS_TYPE": 0, "CLASSIFICATION_TYPE": "U", "NORAD_CAT_ID": 19420, "ELEMENT_SET_NO": 999, "REV_AT_EPOCH": 82556, "BSTAR": 0.00023755346, "MEAN_MOTION_DOT": 1.46e-06, "MEAN_MOTION_DDOT": 0}, "tle": {"line1": "1 19420U 88074B   25339.70316589  .00000146  00000+0  23755-3 0  9999", "line2": "2 19420  90.0369  20.5696 0092502 260.3951 226.1548 13.42582937825565"}}, "geometry": {"type": "Point", "coordinates": [-159.51339035830483, -66.65466956942595]}}]}